{"spkid": "50686174", "covariance": {"labels": ["e", "q", "tp", "node", "peri", "i"], "data": [["1.304409988672504E-11", "-1.780787886141015E-11", "-2.058231290934825E-9", "4.775776073895965E-10", "-3.827680075136368E-9", "2.994755155078463E-10"], ["-1.780787886141015E-11", "2.431142491691977E-11", "2.810104895417642E-9", "-6.519709604725954E-10", "5.225720620345071E-9", "-4.088759125216526E-10"], ["-2.058231290934825E-9", "2.810104895417642E-9", "3.300004876254703E-7", "-7.483132051239322E-8", "6.080141011487676E-7", "-4.807729287312579E-8"], ["4.775776073895965E-10", "-6.519709604725954E-10", "-7.483132051239322E-8", "1.8404240964679E-8", "-1.405941630386654E-7", "1.145099313863335E-8"], ["-3.827680075136368E-9", "5.225720620345071E-9", "6.080141011487676E-7", "-1.405941630386654E-7", "1.127180781026128E-6", "-8.907960565021121E-8"], ["2.994755155078463E-10", "-4.088759125216526E-10", "-4.807729287312579E-8", "1.145099313863335E-8", "-8.907960565021121E-8", "7.436664041601193E-9"]], "elements": [{"units": null, "title": "eccentricity", "value": ".2751932397814176", "name": "e", "sigma": 3.61166165175048e-06, "label": "e"}, {"units": "au", "value": ".9904396792075346", "title": "perihelion distance", "name": "q", "sigma": 4.93066171187192e-06, "label": "q"}, {"units": "TDB", "title": "time of perihelion passage", "value": "2458014.207582448829", "sigma": 0.00057445668907714, "name": "tp", "label": "tp"}, {"value": "149.9617438640339", "title": "longitude of the ascending node", "units": "deg", "name": "om", "sigma": 0.000135662231165048, "label": "node"}, {"label": "peri", "units": "deg", "title": "argument of perihelion", "value": "130.2430214710286", "sigma": 0.00106168770409482, "name": "w"}, {"label": "i", "units": "deg", "title": "inclination", "value": "8.010241922856373", "name": "i", "sigma": 8.62360947724396e-05}], "epoch": "2457998.5"}, "elements": [{"name": "e", "sigma": "3.6153E-6", "title": "eccentricity", "value": ".2749619515047463", "units": null, "label": "e"}, {"sigma": "2.5012E-8", "name": "a", "units": "au", "title": "semi-major axis", "value": "1.365748409111372", "label": "a"}, {"label": "q", "sigma": "4.9196E-6", "name": "q", "units": "au", "value": ".9902195612776062", "title": "perihelion distance"}, {"label": "i", "sigma": "8.6392E-5", "name": "i", "units": "deg", "title": "inclination; angle with respect to x-y ecliptic plane", "value": "8.026170561164523"}, {"label": "node", "sigma": ".00013947", "name": "om", "title": "longitude of the ascending node", "value": "149.8246939226926", "units": "deg"}, {"label": "peri", "sigma": ".0010711", "name": "w", "title": "argument of perihelion", "value": "130.357625608254", "units": "deg"}, {"label": "M", "units": "deg", "title": "mean anomaly", "value": "166.6608961526483", "name": "ma", "sigma": ".00032823"}, {"label": "tp", "name": "tp", "sigma": ".00053881", "title": "time of perihelion passage", "value": "2460930.610683291575", "units": "TDB"}, {"label": "period", "name": "per", "sigma": "1.6015E-5", "units": "d", "value": "582.981108694159", "title": "sidereal orbital period"}, {"name": "n", "sigma": "1.6963E-8", "units": "deg/d", "title": "mean motion", "value": ".6175157215752278", "label": "n"}, {"units": "au", "title": "aphelion distance", "value": "1.741277256945137", "name": "ad", "sigma": "3.1889E-8", "label": "Q"}], "epoch": "2461200.5"}